[{"OBJECT_NAME":"BEIDOU-3 M19 (C41)","OBJECT_ID":"2019-090A","EPOCH":"2026-03-02T06:18:21.805632","MEAN_MOTION":1.8623122,"ECCENTRICITY":0.00204083,"INCLINATION":56.4657,"RA_OF_ASC_NODE":66.3234,"ARG_OF_PERICENTER":291.3317,"MEAN_ANOMALY":195.2232,"EPHEMERIS_TYPE":0,"CLASSIFICATION_TYPE":"U","NORAD_CAT_ID":44864,"ELEMENT_SET_NO":999,"REV_AT_EPOCH":4224,"BSTAR":0,"MEAN_MOTION_DOT":-8.0e-8,"MEAN_MOTION_DDOT":0},{"OBJECT_NAME":"BEIDOU-3 M20 (C42)","OBJECT_ID":"2019-090B","EPOCH":"2026-03-03T19:49:38.667072","MEAN_MOTION":1.86231297,"ECCENTRICITY":0.00178132,"INCLINATION":56.4687,"RA_OF_ASC_NODE":66.3059,"ARG_OF_PERICENTER":302.943,"MEAN_ANOMALY":241.3938,"EPHEMERIS_TYPE":0,"CLASSIFICATION_TYPE":"U","NORAD_CAT_ID":44865,"ELEMENT_SET_NO":999,"REV_AT_EPOCH":4225,"BSTAR":0,"MEAN_MOTION_DOT":-2.1e-7,"MEAN_MOTION_DDOT":0},{"OBJECT_NAME":"BEIDOU-3 G2 (C60)","OBJECT_ID":"2020-017A","EPOCH":"2026-03-03T23:00:52.700256","MEAN_MOTION":1.00271213,"ECCENTRICITY":0.00027476,"INCLINATION":2.6539,"RA_OF_ASC_NODE":45.5725,"ARG_OF_PERICENTER":303.0146,"MEAN_ANOMALY":238.3726,"EPHEMERIS_TYPE":0,"CLASSIFICATION_TYPE":"U","NORAD_CAT_ID":45344,"ELEMENT_SET_NO":999,"REV_AT_EPOCH":2220,"BSTAR":0,"MEAN_MOTION_DOT":-1.51e-6,"MEAN_MOTION_DDOT":0},{"OBJECT_NAME":"COSMOS 2545 (760)","OBJECT_ID":"2020-018A","EPOCH":"2026-03-03T15:23:10.080960","MEAN_MOTION":2.13102285,"ECCENTRICITY":0.00082572,"INCLINATION":64.4181,"RA_OF_ASC_NODE":316.1306,"ARG_OF_PERICENTER":250.5156,"MEAN_ANOMALY":109.4558,"EPHEMERIS_TYPE":0,"CLASSIFICATION_TYPE":"U","NORAD_CAT_ID":45358,"ELEMENT_SET_NO":999,"REV_AT_EPOCH":4641,"BSTAR":0,"MEAN_MOTION_DOT":-4.9e-7,"MEAN_MOTION_DDOT":0},{"OBJECT_NAME":"BEIDOU-3 G3 (C61)","OBJECT_ID":"2020-040A","EPOCH":"2026-03-03T23:09:29.374848","MEAN_MOTION":1.00275638,"ECCENTRICITY":0.00042915,"INCLINATION":2.189,"RA_OF_ASC_NODE":67.1203,"ARG_OF_PERICENTER":315.8381,"MEAN_ANOMALY":236.6035,"EPHEMERIS_TYPE":0,"CLASSIFICATION_TYPE":"U","NORAD_CAT_ID":45807,"ELEMENT_SET_NO":999,"REV_AT_EPOCH":2101,"BSTAR":0,"MEAN_MOTION_DOT":-3.66e-6,"MEAN_MOTION_DDOT":0},{"OBJECT_NAME":"GPS BIII-3  (PRN 23)","OBJECT_ID":"2020-041A","EPOCH":"2026-03-03T06:36:14.143680","MEAN_MOTION":2.00560606,"ECCENTRICITY":0.00613657,"INCLINATION":56.6052,"RA_OF_ASC_NODE":33.0526,"ARG_OF_PERICENTER":205.2583,"MEAN_ANOMALY":328.7601,"EPHEMERIS_TYPE":0,"CLASSIFICATION_TYPE":"U","NORAD_CAT_ID":45854,"ELEMENT_SET_NO":999,"REV_AT_EPOCH":4191,"BSTAR":0,"MEAN_MOTION_DOT":-7.8e-7,"MEAN_MOTION_DDOT":0},{"OBJECT_NAME":"GALAXY 30 (WAAS/PRN 135)","OBJECT_ID":"2020-056C","EPOCH":"2026-03-03T22:02:05.834976","MEAN_MOTION":1.00272568,"ECCENTRICITY":0.0002188,"INCLINATION":0.0164,"RA_OF_ASC_NODE":121.4187,"ARG_OF_PERICENTER":220.8162,"MEAN_ANOMALY":24.9448,"EPHEMERIS_TYPE":0,"CLASSIFICATION_TYPE":"U","NORAD_CAT_ID":46114,"ELEMENT_SET_NO":999,"REV_AT_EPOCH":2023,"BSTAR":0,"MEAN_MOTION_DOT":2.4e-7,"MEAN_MOTION_DDOT":0},{"OBJECT_NAME":"COSMOS 2547 (705K)","OBJECT_ID":"2020-075A","EPOCH":"2026-03-02T10:07:23.038752","MEAN_MOTION":2.13100073,"ECCENTRICITY":0.00067076,"INCLINATION":64.5998,"RA_OF_ASC_NODE":196.0353,"ARG_OF_PERICENTER":229.5207,"MEAN_ANOMALY":130.3796,"EPHEMERIS_TYPE":0,"CLASSIFICATION_TYPE":"U","NORAD_CAT_ID":46805,"ELEMENT_SET_NO":999,"REV_AT_EPOCH":4163,"BSTAR":0,"MEAN_MOTION_DOT":-1.2e-7,"MEAN_MOTION_DDOT":0},{"OBJECT_NAME":"GPS BIII-4  (PRN 14)","OBJECT_ID":"2020-078A","EPOCH":"2026-03-03T19:19:28.797888","MEAN_MOTION":2.00565522,"ECCENTRICITY":0.00681916,"INCLINATION":54.0018,"RA_OF_ASC_NODE":215.0499,"ARG_OF_PERICENTER":204.2889,"MEAN_ANOMALY":325.6484,"EPHEMERIS_TYPE":0,"CLASSIFICATION_TYPE":"U","NORAD_CAT_ID":46826,"ELEMENT_SET_NO":999,"REV_AT_EPOCH":3939,"BSTAR":0,"MEAN_MOTION_DOT":-7.0e-8,"MEAN_MOTION_DDOT":0},{"OBJECT_NAME":"GPS BIII-5  (PRN 11)","OBJECT_ID":"2021-054A","EPOCH":"2026-03-03T11:47:26.617920","MEAN_MOTION":2.0057558,"ECCENTRICITY":0.00238645,"INCLINATION":55.2215,"RA_OF_ASC_NODE":336.7106,"ARG_OF_PERICENTER":232.0768,"MEAN_ANOMALY":255.4185,"EPHEMERIS_TYPE":0,"CLASSIFICATION_TYPE":"U","NORAD_CAT_ID":48859,"ELEMENT_SET_NO":999,"REV_AT_EPOCH":3463,"BSTAR":0,"MEAN_MOTION_DOT":-1.0e-6,"MEAN_MOTION_DDOT":0},{"OBJECT_NAME":"QZS-1R (QZSS/PRN 196)","OBJECT_ID":"2021-096A","EPOCH":"2026-03-03T16:55:38.753760","MEAN_MOTION":1.00291339,"ECCENTRICITY":0.07473559,"INCLINATION":37.2425,"RA_OF_ASC_NODE":81.1405,"ARG_OF_PERICENTER":269.6972,"MEAN_ANOMALY":198.6025,"EPHEMERIS_TYPE":0,"CLASSIFICATION_TYPE":"U","NORAD_CAT_ID":49336,"ELEMENT_SET_NO":999,"REV_AT_EPOCH":1595,"BSTAR":0,"MEAN_MOTION_DOT":-2.6e-6,"MEAN_MOTION_DDOT":0},{"OBJECT_NAME":"GSAT0223 (GALILEO 27)","OBJECT_ID":"2021-116A","EPOCH":"2026-02-17T00:57:26.434656","MEAN_MOTION":1.70475508,"ECCENTRICITY":0.00028659,"INCLINATION":57.2005,"RA_OF_ASC_NODE":344.9238,"ARG_OF_PERICENTER":278.195,"MEAN_ANOMALY":264.6358,"EPHEMERIS_TYPE":0,"CLASSIFICATION_TYPE":"U","NORAD_CAT_ID":49809,"ELEMENT_SET_NO":999,"REV_AT_EPOCH":2613,"BSTAR":0,"MEAN_MOTION_DOT":-7.8e-7,"MEAN_MOTION_DDOT":0},{"OBJECT_NAME":"GSAT0224 (GALILEO 28)","OBJECT_ID":"2021-116B","EPOCH":"2026-02-23T21:29:03.517440","MEAN_MOTION":1.70475193,"ECCENTRICITY":0.00021827,"INCLINATION":57.1984,"RA_OF_ASC_NODE":344.7369,"ARG_OF_PERICENTER":291.9502,"MEAN_ANOMALY":250.7131,"EPHEMERIS_TYPE":0,"CLASSIFICATION_TYPE":"U","NORAD_CAT_ID":49810,"ELEMENT_SET_NO":999,"REV_AT_EPOCH":2627,"BSTAR":0,"MEAN_MOTION_DOT":-8.8e-7,"MEAN_MOTION_DDOT":0},{"OBJECT_NAME":"COSMOS 2557 (706K)","OBJECT_ID":"2022-075A","EPOCH":"2026-03-03T12:36:37.175328","MEAN_MOTION":2.13101658,"ECCENTRICITY":0.00116297,"INCLINATION":64.3599,"RA_OF_ASC_NODE":318.2098,"ARG_OF_PERICENTER":283.5045,"MEAN_ANOMALY":76.4245,"EPHEMERIS_TYPE":0,"CLASSIFICATION_TYPE":"U","NORAD_CAT_ID":52984,"ELEMENT_SET_NO":999,"REV_AT_EPOCH":2846,"BSTAR":0,"MEAN_MOTION_DOT":-5.2e-7,"MEAN_MOTION_DDOT":0},{"OBJECT_NAME":"COSMOS 2559 (707K)","OBJECT_ID":"2022-130A","EPOCH":"2026-02-28T23:57:48.913920","MEAN_MOTION":2.13101169,"ECCENTRICITY":0.00106014,"INCLINATION":64.3338,"RA_OF_ASC_NODE":318.3857,"ARG_OF_PERICENTER":182.1671,"MEAN_ANOMALY":177.8809,"EPHEMERIS_TYPE":0,"CLASSIFICATION_TYPE":"U","NORAD_CAT_ID":54031,"ELEMENT_SET_NO":999,"REV_AT_EPOCH":2638,"BSTAR":0,"MEAN_MOTION_DOT":-4.9e-7,"MEAN_MOTION_DDOT":0},{"OBJECT_NAME":"COSMOS 2564 (761)","OBJECT_ID":"2022-161A","EPOCH":"2026-03-02T17:15:25.982208","MEAN_MOTION":2.13101914,"ECCENTRICITY":0.00093867,"INCLINATION":64.7417,"RA_OF_ASC_NODE":196.2427,"ARG_OF_PERICENTER":209.4711,"MEAN_ANOMALY":150.435,"EPHEMERIS_TYPE":0,"CLASSIFICATION_TYPE":"U","NORAD_CAT_ID":54377,"ELEMENT_SET_NO":999,"REV_AT_EPOCH":2536,"BSTAR":0,"MEAN_MOTION_DOT":-1.1e-7,"MEAN_MOTION_DDOT":0},{"OBJECT_NAME":"GPS BIII-6  (PRN 28)","OBJECT_ID":"2023-009A","EPOCH":"2026-03-03T06:08:38.738688","MEAN_MOTION":2.00549255,"ECCENTRICITY":0.00046146,"INCLINATION":55.1094,"RA_OF_ASC_NODE":152.6829,"ARG_OF_PERICENTER":335.9551,"MEAN_ANOMALY":20.9517,"EPHEMERIS_TYPE":0,"CLASSIFICATION_TYPE":"U","NORAD_CAT_ID":55268,"ELEMENT_SET_NO":999,"REV_AT_EPOCH":2311,"BSTAR":0,"MEAN_MOTION_DOT":-2.0e-8,"MEAN_MOTION_DDOT":0}]
